*******************************************************************************
 Revised: April 12, 2021             Mercury                            199 / 1

 PHYSICAL DATA (updated 2024-Mar-04):
  Vol. Mean Radius (km) =  2439.4+-0.1    Density (g cm^-3)     = 5.427
  Mass x10^23 (kg)      =     3.302       Volume (x10^10 km^3)  = 6.085  
  Sidereal rot. period  =    58.6463 d    Sid. rot. rate (rad/s)= 0.00000124001
  Mean solar day        =   175.9421 d    Core radius (km)      = ~1600 
  Geometric Albedo      =     0.106       Surface emissivity    = 0.77+-0.06
  GM (km^3/s^2)         = 22031.86855     Equatorial radius, Re = 2440.53 km
  GM 1-sigma (km^3/s^2) =                 Mass ratio (Sun/plnt) = 6023682
  Mom. of Inertia       =     0.33        Equ. gravity  m/s^2   = 3.701     
  Atmos. pressure (bar) = < 5x10^-15      Max. angular diam.    = 11.0"   
  Mean Temperature (K)  = 440             Visual mag. V(1,0)    = -0.42 
  Obliquity to orbit[1] =  2.11' +/- 0.1' Hill's sphere rad. Rp = 94.4 
  Sidereal orb. per.    =  0.2408467 y    Mean Orbit vel.  km/s = 47.362 
  Sidereal orb. per.    = 87.969257  d    Escape vel. km/s      =  4.435
                                 Perihelion  Aphelion    Mean
  Solar Constant (W/m^2)         14462       6278        9126
  Maximum Planetary IR (W/m^2)   12700       5500        8000
  Minimum Planetary IR (W/m^2)   6           6           6
*******************************************************************************


*******************************************************************************
Ephemeris / WWW_USER Sun Dec 14 09:54:19 2025 Pasadena, USA      / Horizons
*******************************************************************************
Target body name: Mercury (199)                   {source: DE441}
Center body name: Solar System Barycenter (0)     {source: DE441}
Center-site name: BODY CENTER
*******************************************************************************
Start time      : A.D. 2015-Jan-02 00:00:00.0000 TDB
Stop  time      : A.D. 2015-Apr-29 00:00:00.0000 TDB
Step-size       : 60 minutes
*******************************************************************************
Center geodetic : 0.0, 0.0, 0.0                   {E-lon(deg),Lat(deg),Alt(km)}
Center cylindric: 0.0, 0.0, 0.0                   {E-lon(deg),Dxy(km),Dz(km)}
Center radii    : (undefined)
Output units    : KM-S
Calendar mode   : Mixed Julian/Gregorian
Output type     : GEOMETRIC cartesian states
Output format   : 3 (position, velocity, LT, range, range-rate)
Reference frame : Ecliptic of J2000.0
*******************************************************************************
            JDTDB,            Calendar Date (TDB),                      X,                      Y,                      Z,                     VX,                     VY,                     VZ,                     LT,                     RG,                     RR,
**************************************************************************************************************************************************************************************************************************************************************************
$$SOE
2457134.916666667, A.D. 2015-Apr-22 10:00:00.0000, -2.441130390607795E+06,  4.601887722789814E+07,  4.009334277606282E+06, -5.838132810710019E+01, -1.307106459390266E+00,  5.248915050748803E+00,  1.542989389662468E+02,  4.625765817948310E+07,  2.235511301497110E+00,
2457134.958333333, A.D. 2015-Apr-22 11:00:00.0000, -2.651277260029912E+06,  4.601377328134747E+07,  4.028195444438098E+06, -5.836676598268139E+01, -1.528390724812488E+00,  5.229498016121962E+00,  1.543260507109093E+02,  4.626578607605613E+07,  2.279976287582552E+00,
2457135.000000000, A.D. 2015-Apr-22 12:00:00.0000, -2.861369906491628E+06,  4.600787302470910E+07,  4.046986570463277E+06, -5.835120453354327E+01, -1.749499966273135E+00,  5.210003599004597E+00,  1.543536960239275E+02,  4.627407393239806E+07,  2.324377644146066E+00,
2457135.041666667, A.D. 2015-Apr-22 13:00:00.0000, -3.071404735618994E+06,  4.600117709870817E+07,  4.065707378267268E+06, -5.833464554221467E+01, -1.970428276908482E+00,  5.190432445579686E+00,  1.543818741341819E+02,  4.628252151733301E+07,  2.368714200067477E+00,
2457135.083333333, A.D. 2015-Apr-22 14:00:00.0000, -3.281378159536110E+06,  4.599368616529516E+07,  4.084357592766006E+06, -5.831709083615085E+01, -2.191169771781611E+00,  5.170785204360372E+00,  1.544105842565210E+02,  4.629112859547852E+07,  2.412984789490003E+00,
2457135.125000000, A.D. 2015-Apr-22 15:00:00.0000, -3.491286597026337E+06,  4.598540090756626E+07,  4.102936941214157E+06, -5.829854228744338E+01, -2.411718588307802E+00,  5.151062526128607E+00,  1.544398255918256E+02,  4.629989492726470E+07,  2.457188251905139E+00,
2457135.166666667, A.D. 2015-Apr-22 16:00:00.0000, -3.701126473692484E+06,  4.597632202968207E+07,  4.121445153213216E+06, -5.827900181252557E+01, -2.632068886675466E+00,  5.131265063873711E+00,  1.544695973270733E+02,  4.630882026895353E+07,  2.501323432236613E+00,
2457135.208333333, A.D. 2015-Apr-22 17:00:00.0000, -3.910894222115887E+06,  4.596645025678488E+07,  4.139881960719304E+06, -5.825847137187287E+01, -2.852214850262442E+00,  5.111393472730886E+00,  1.544998986354040E+02,  4.631790437265861E+07,  2.545389180923333E+00,
2457135.250000000, A.D. 2015-Apr-22 18:00:00.0000, -4.120586282014409E+06,  4.595578633491450E+07,  4.158247098050797E+06, -5.823695296969902E+01, -3.072150686047709E+00,  5.091448409919699E+00,  1.545307286761871E+02,  4.632714698636521E+07,  2.589384354001342E+00,
2457135.291666667, A.D. 2015-Apr-22 19:00:00.0000, -4.330199100399341E+06,  4.594433103092249E+07,  4.176540301895732E+06, -5.821444865364737E+01, -3.291870625018391E+00,  5.071430534682501E+00,  1.545620865950888E+02,  4.633654785395052E+07,  2.633307813184792E+00,
2457135.333333333, A.D. 2015-Apr-22 20:00:00.0000, -4.539729131731216E+06,  4.593208513238506E+07,  4.194761311318969E+06, -5.819096051447810E+01, -3.511368922572013E+00,  5.051340508222856E+00,  1.545939715241409E+02,  4.634610671520420E+07,  2.677158425945964E+00,
2457135.375000000, A.D. 2015-Apr-22 21:00:00.0000, -4.749172838074418E+06,  4.591904944751443E+07,  4.212909867769120E+06, -5.816649068575083E+01, -3.730639858913964E+00,  5.031178993643955E+00,  1.546263825818105E+02,  4.635582330584934E+07,  2.720935065594176E+00,
2457135.416666667, A.D. 2015-Apr-22 22:00:00.0000, -4.958526689250709E+06,  4.590522480506887E+07,  4.230985715085320E+06, -5.814104134350298E+01, -3.949677739450131E+00,  5.010946655887031E+00,  1.546593188730704E+02,  4.636569735756358E+07,  2.764636611353717E+00,
2457135.458333333, A.D. 2015-Apr-22 23:00:00.0000, -5.167787162991568E+06,  4.589061205426121E+07,  4.248988599503687E+06, -5.811461470592409E+01, -4.168476895174599E+00,  4.990644161669782E+00,  1.546927794894709E+02,  4.637572859800044E+07,  2.808261948440776E+00,
2457135.500000000, A.D. 2015-Apr-23 00:00:00.0000, -5.376950745089320E+06,  4.587521206466608E+07,  4.266918269663641E+06, -5.808721303302587E+01, -4.387031683052436E+00,  4.970272179424843E+00,  1.547267635092116E+02,  4.638591675081123E+07,  2.851809968139227E+00,
2457135.541666667, A.D. 2015-Apr-23 01:00:00.0000, -5.586013929547124E+06,  4.585902572612575E+07,  4.284774476613956E+06, -5.805883862630832E+01, -4.605336486397477E+00,  4.949831379238269E+00,  1.547612699972154E+02,  4.639626153566685E+07,  2.895279567875459E+00,
2457135.583333333, A.D. 2015-Apr-23 02:00:00.0000, -5.794973218727706E+06,  4.584205394865450E+07,  4.302556973818580E+06, -5.802949382842180E+01, -4.823385715245039E+00,  4.929322432788089E+00,  1.547962980052024E+02,  4.640676266828010E+07,  2.938669651292084E+00,
2457135.625000000, A.D. 2015-Apr-23 03:00:00.0000, -6.003825123500891E+06,  4.582429766234192E+07,  4.320265517162303E+06, -5.799918102282540E+01, -5.041173806719602E+00,  4.908746013282915E+00,  1.548318465717648E+02,  4.641741986042824E+07,  2.981979128320555E+00,
2457135.666666667, A.D. 2015-Apr-23 04:00:00.0000, -6.212566163389897E+06,  4.580575781725460E+07,  4.337899864956109E+06, -5.796790263344131E+01, -5.258695225397325E+00,  4.888102795400613E+00,  1.548679147224432E+02,  4.642823281997565E+07,  3.025206915252739E+00,
2457135.708333333, A.D. 2015-Apr-23 05:00:00.0000, -6.421192866716379E+06,  4.578643538333668E+07,  4.355459777942384E+06, -5.793566112430572E+01, -5.475944463663400E+00,  4.867393455227070E+00,  1.549045014698033E+02,  4.643920125089695E+07,  3.068351934811417E+00,
2457135.750000000, A.D. 2015-Apr-23 06:00:00.0000, -6.629701770744180E+06,  4.576633135030919E+07,  4.372945019299859E+06, -5.790245899921590E+01, -5.692916042064198E+00,  4.846618670195051E+00,  1.549416058135133E+02,  4.645032485330024E+07,  3.111413116219571E+00,
2457135.791666667, A.D. 2015-Apr-23 07:00:00.0000, -6.838089421821868E+06,  4.574544672756795E+07,  4.390355354648372E+06, -5.786829880137397E+01, -5.909604509654194E+00,  4.825779119023160E+00,  1.549792267404226E+02,  4.646160332345063E+07,  3.154389395268725E+00,
2457135.833333333, A.D. 2015-Apr-23 08:00:00.0000, -7.046352375523917E+06,  4.572378254408034E+07,  4.407690552053345E+06, -5.783318311302698E+01, -6.126004444337573E+00,  4.804875481654924E+00,  1.550173632246412E+02,  4.647303635379399E+07,  3.197279714386022E+00,
2457135.875000000, A.D. 2015-Apr-23 09:00:00.0000, -7.254487196790636E+06,  4.570133984828088E+07,  4.424950382030137E+06, -5.779711455510395E+01, -6.342110453204516E+00,  4.783908439197985E+00,  1.550560142276194E+02,  4.648462363298097E+07,  3.240083022700313E+00,
2457135.916666667, A.D. 2015-Apr-23 10:00:00.0000, -7.462490460066753E+06,  4.567811970796551E+07,  4.442134617548078E+06, -5.776009578684925E+01, -6.557917172862163E+00,  4.762878673863451E+00,  1.550951786982289E+02,  4.649636484589127E+07,  3.282798276107002E+00,
